OBJECT_NAME,OBJECT_ID,EPOCH,MEAN_MOTION,ECCENTRICITY,INCLINATION,RA_OF_ASC_NODE,ARG_OF_PERICENTER,MEAN_ANOMALY,EPHEMERIS_TYPE,CLASSIFICATION_TYPE,NORAD_CAT_ID,ELEMENT_SET_NO,REV_AT_EPOCH,BSTAR,MEAN_MOTION_DOT,MEAN_MOTION_DDOT
STARLINK-37732,2026-119M,2026-06-19T06:00:02.000160,15.64033925,.00012118,97.2855,196.1924,79.6327,315.4826,0,U,69307,999,437,-.30653602E-1,-.2517762E-1,0
STARLINK-37689,2026-119N,2026-06-19T06:00:02.000160,15.49187053,.00004091,97.2849,195.9386,84.2248,85.5677,0,U,69308,999,437,-.3106252E-3,-.16946E-3,0
STARLINK-37619,2026-119P,2026-06-19T06:00:02.000160,15.62274957,.00010209,97.2856,196.1847,99.7561,276.2320,0,U,69309,999,437,-.31492104E-1,-.2426407E-1,0
STARLINK-37794,2026-119Q,2026-06-19T06:00:02.000160,15.53135486,.00023232,97.2851,196.0916,80.2646,91.8046,0,U,69310,999,437,-.3180405E-1,-.1772487E-1,0
STARLINK-37795,2026-119R,2026-06-19T06:00:02.000160,15.49187048,.00004868,97.2847,195.9499,97.3104,97.8512,0,U,69311,999,437,-.31246433E-3,-.17046E-3,0
STARLINK-37790,2026-119S,2026-06-19T06:00:02.000160,15.55481079,.00016353,97.2848,196.1553,108.5316,201.0255,0,U,69312,999,437,-.41510742E-1,-.2464239E-1,0
STARLINK-37676,2026-119T,2026-06-19T06:00:02.000160,15.64483090,.00013149,97.2839,196.2161,68.3808,19.3597,0,U,69313,999,437,-.29469343E-1,-.2471121E-1,0
STARLINK-37617,2026-119U,2026-06-19T06:00:02.000160,15.57222202,.00017273,97.2854,196.1597,103.3716,214.3851,0,U,69314,999,437,-.38913667E-1,-.2465178E-1,0
STARLINK-37627,2026-119V,2026-06-19T06:00:02.000160,15.55644743,.00014058,97.2846,196.1662,112.9501,223.4734,0,U,69315,999,437,-.41911781E-1,-.2497764E-1,0
STARLINK-37738,2026-119W,2026-06-19T06:00:02.000160,15.57908425,.00011245,97.2851,196.1575,87.6906,223.6784,0,U,69316,999,437,-.11452036E-1,-.775859E-2,0
STARLINK-37799,2026-119X,2026-06-19T06:00:02.000160,15.67519568,.0001739,97.2843,196.2218,73.5015,41.4788,0,U,69317,999,432,-.27809011E-1,-.2614226E-1,0
STARLINK-37802,2026-119Y,2026-06-19T06:00:02.000160,15.62446875,.00011339,97.2848,196.2070,67.9361,0.3722,0,U,69318,999,437,-.32580647E-1,-.2514088E-1,0
STARLINK-37803,2026-119Z,2026-06-19T06:00:02.000160,15.52165628,.00016112,97.2899,196.0923,89.3561,78.2678,0,U,69319,999,432,-.14996068E-1,-.829892E-2,0
GUOWANG TEST OBJECT A,2026-120A,2026-06-07T11:06:12.288672,15.38803685,.00095994,54.9967,71.5399,294.3963,65.6063,0,U,69320,999,119,.24095813E-3,.9002E-4,0
GUOWANG TEST OBJECT B,2026-120B,2026-06-19T06:46:32.806560,15.38757744,.0010377,54.9984,18.3037,336.3505,23.7045,0,U,69321,999,301,.28688937E-3,.10782E-3,0
GUOWANG TEST OBJECT C,2026-120C,2026-06-07T21:56:00.773376,15.39284097,.00098504,54.9968,69.4792,309.3319,50.6835,0,U,69322,999,126,.41735581E-3,.16153E-3,0
GUOWANG TEST OBJECT D,2026-120D,2026-06-17T23:29:30.192288,15.39049885,.00117566,54.9980,24.1234,346.0651,14.0051,0,U,69323,999,281,.45962169E-4,.141E-4,0
QIANFAN-163,2026-121A,2026-06-19T06:52:07.724064,13.59758501,.002031,89.0152,300.3034,182.7428,177.3621,0,U,69325,999,244,.24609738E-4,.31E-6,0
QIANFAN-164,2026-121B,2026-06-11T09:53:52.001952,13.60355109,.0019383,89.0157,301.0998,205.3125,154.7084,0,U,69326,999,137,.13228E-3,.112E-5,0
SZ-22 MODULE,2025-272C,2026-06-19T02:18:20.664864,15.60279994,.00062711,41.4805,310.5033,103.8964,256.2573,0,U,69328,999,362,.20400189E-3,.1686E-3,0
STARLINK-37733,2026-122A,2026-06-18T04:13:56.398944,15.80450219,.00014071,97.2827,198.6747,137.8378,222.2998,0,U,69329,999,231,-.23398453E-2,-.420355E-2,0
STARLINK-37772,2026-122B,2026-06-19T06:00:02.000160,15.75052623,.00009052,97.2847,199.8186,74.5108,286.7595,0,U,69330,999,363,-.69812189E-2,-.928845E-2,0
STARLINK-37768,2026-122C,2026-06-19T06:00:02.000160,15.64434324,.00013627,97.2848,199.7873,96.6505,195.9057,0,U,69331,999,363,-.30811097E-1,-.2564311E-1,0
STARLINK-37833,2026-122D,2026-06-19T06:00:02.000160,15.71720416,.00011091,97.2850,199.8142,68.1595,288.3403,0,U,69332,999,363,-.23191487E-1,-.2598917E-1,0
STARLINK-37818,2026-122E,2026-06-19T06:00:02.000160,15.70107188,.0001069,97.2852,199.8048,70.2011,262.9688,0,U,69333,999,368,-.20578001E-1,-.21615E-1,0
STARLINK-37868,2026-122F,2026-06-19T06:00:02.000160,15.72827130,.00011676,97.2845,199.8337,50.5733,348.7638,0,U,69334,999,368,-.20282522E-1,-.235818E-1,0
STARLINK-37877,2026-122G,2026-06-19T06:00:02.000160,15.60735222,.0001093,97.2850,199.7887,74.9894,213.0670,0,U,69335,999,368,-.96085506E-2,-.729101E-2,0
STARLINK-37791,2026-122H,2026-06-19T06:00:02.000160,15.70044938,.00012831,97.2848,199.8256,62.3745,321.0807,0,U,69336,999,368,-.96540275E-2,-.1042997E-1,0
STARLINK-37765,2026-122J,2026-06-19T05:41:59.110080,15.80893458,.00007022,97.2825,199.8345,81.9737,278.1611,0,U,69337,999,248,.12433231E-2,.245713E-2,0
