
GUOWANG TEST OBJECT A
1 69320U 26120A   26158.46264223  .00009002  00000+0  24096-3 0  9996
2 69320  54.9967  71.5399 0009599 294.3963  65.6063 15.38803685  1198

GUOWANG TEST OBJECT B
1 69321U 26120B   26170.28232415  .00010782  00000+0  28689-3 0  9998
2 69321  54.9984  18.3037 0010377 336.3505  23.7045 15.38757744  3013

GUOWANG TEST OBJECT C
1 69322U 26120C   26158.91389784  .00016153  00000+0  41736-3 0  9993
2 69322  54.9968  69.4792 0009850 309.3319  50.6835 15.39284097  1266

GUOWANG TEST OBJECT D
1 69323U 26120D   26168.97882167  .00001410  00000+0  45962-4 0  9990
2 69323  54.9980  24.1234 0011756 346.0651  14.0051 15.39049885  2815

QIANFAN-163
1 69325U 26121A   26170.28620051  .00000031  00000+0  24610-4 0  9997
2 69325  89.0152 300.3034 0020310 182.7428 177.3621 13.59758501  2444

QIANFAN-164
1 69326U 26121B   26162.41240743  .00000112  00000+0  13228-3 0  9992
2 69326  89.0157 301.0998 0019383 205.3125 154.7084 13.60355109  1373

STARLINK-37617
1 69314U 26119U   26170.25002315 -.02465178  00000+0 -38914-1 0  9996
2 69314  97.2854 196.1597 0001727 103.3716 214.3851 15.57222202  4372

STARLINK-37619
1 69309U 26119P   26170.25002315 -.02426407  00000+0 -31492-1 0  9996
2 69309  97.2856 196.1847 0001020  99.7561 276.2320 15.62274957  4376

STARLINK-37627
1 69315U 26119V   26170.25002315 -.02497764  00000+0 -41912-1 0  9995
2 69315  97.2846 196.1662 0001405 112.9501 223.4734 15.55644743  4375

STARLINK-37676
1 69313U 26119T   26170.25002315 -.02471121  00000+0 -29469-1 0  9995
2 69313  97.2839 196.2161 0001314  68.3808  19.3597 15.64483090  4378

STARLINK-37689
1 69308U 26119N   26170.25002315 -.00016946  00000+0 -31063-3 0  9992
2 69308  97.2849 195.9386 0000409  84.2248  85.5677 15.49187053  4374

STARLINK-37732
1 69307U 26119M   26170.25002315 -.02517762  00000+0 -30654-1 0  9998
2 69307  97.2855 196.1924 0001211  79.6327 315.4826 15.64033925  4375

STARLINK-37733
1 69329U 26122A   26169.17634721 -.00420355  00000+0 -23398-2 0  9994
2 69329  97.2827 198.6747 0001407 137.8378 222.2998 15.80450219  2312

STARLINK-37738
1 69316U 26119W   26170.25002315 -.00775859  00000+0 -11452-1 0  9994
2 69316  97.2851 196.1575 0001124  87.6906 223.6784 15.57908425  4379

STARLINK-37765
1 69337U 26122J   26170.23748970  .00245713  00000+0  12433-2 0  9993
2 69337  97.2825 199.8345 0000702  81.9737 278.1611 15.80893458  2487

STARLINK-37768
1 69331U 26122C   26170.25002315 -.02564311  00000+0 -30811-1 0  9996
2 69331  97.2848 199.7873 0001362  96.6505 195.9057 15.64434324  3633

STARLINK-37772
1 69330U 26122B   26170.25002315 -.00928845  00000+0 -69812-2 0  9993
2 69330  97.2847 199.8186 0000905  74.5108 286.7595 15.75052623  3631

STARLINK-37790
1 69312U 26119S   26170.25002315 -.02464239  00000+0 -41511-1 0  9998
2 69312  97.2848 196.1553 0001635 108.5316 201.0255 15.55481079  4374

STARLINK-37791
1 69336U 26122H   26170.25002315 -.01042997  00000+0 -96540-2 0  9993
2 69336  97.2848 199.8256 0001283  62.3745 321.0807 15.70044938  3687

STARLINK-37794
1 69310U 26119Q   26170.25002315 -.01772487  00000+0 -31804-1 0  9996
2 69310  97.2851 196.0916 0002323  80.2646  91.8046 15.53135486  4374

STARLINK-37795
1 69311U 26119R   26170.25002315 -.00017046  00000+0 -31246-3 0  9991
2 69311  97.2847 195.9499 0000486  97.3104  97.8512 15.49187048  4370

STARLINK-37799
1 69317U 26119X   26170.25002315 -.02614226  00000+0 -27809-1 0  9990
2 69317  97.2843 196.2218 0001739  73.5015  41.4788 15.67519568  4325

STARLINK-37802
1 69318U 26119Y   26170.25002315 -.02514088  00000+0 -32581-1 0  9999
2 69318  97.2848 196.2070 0001133  67.9361   0.3722 15.62446875  4378

STARLINK-37803
1 69319U 26119Z   26170.25002315 -.00829892  00000+0 -14996-1 0  9990
2 69319  97.2899 196.0923 0001611  89.3561  78.2678 15.52165628  4323

STARLINK-37818
1 69333U 26122E   26170.25002315 -.02161500  00000+0 -20578-1 0  9990
2 69333  97.2852 199.8048 0001069  70.2011 262.9688 15.70107188  3681

STARLINK-37833
1 69332U 26122D   26170.25002315 -.02598917  00000+0 -23191-1 0  9999
2 69332  97.2850 199.8142 0001109  68.1595 288.3403 15.71720416  3639

STARLINK-37868
1 69334U 26122F   26170.25002315 -.02358180  00000+0 -20283-1 0  9996
2 69334  97.2845 199.8337 0001167  50.5733 348.7638 15.72827130  3682

STARLINK-37877
1 69335U 26122G   26170.25002315 -.00729101  00000+0 -96086-2 0  9995
2 69335  97.2850 199.7887 0001093  74.9894 213.0670 15.60735222  3681

SZ-22 MODULE
1 69328U 25272C   26170.09607251  .00016860  00000+0  20400-3 0  9991
2 69328  41.4805 310.5033 0006271 103.8964 256.2573 15.60279994  3627
